{"type": "FeatureCollection", "features": [ {"type": "Feature", "properties": {"norad_id": 57401, "name": "TIANMU-1 09", "group": "weather", "lat": 27.49773761168353, "lon": 46.109456735920254, "alt_km": 475.8571907984624, "timestamp": "2025-12-27T02:10:15.831577+00:00", "meta": {"OBJECT_NAME": "TIANMU-1 09", "OBJECT_ID": "2023-101C", "EPOCH": "2025-12-26T21:20:09.650112", "MEAN_MOTION": 15.28292387, "ECCENTRICITY": 0.0006094, "INCLINATION": 97.2803, "RA_OF_ASC_NODE": 49.7281, "ARG_OF_PERICENTER": 44.6748, "MEAN_ANOMALY": 315.4982, "EPHEMERIS_TYPE": 0, "CLASSIFICATION_TYPE": "U", "NORAD_CAT_ID": 57401, "ELEMENT_SET_NO": 999, "REV_AT_EPOCH": 13531, "BSTAR": 0.00031665, "MEAN_MOTION_DOT": 8.66e-05, "MEAN_MOTION_DDOT": 0}, "tle": {"line1": "1 57401U 23101C   25360.88900058  .00008660  00000+0  31665-3 0  9991", "line2": "2 57401  97.2803  49.7281 0006094  44.6748 315.4982 15.28292387135313"}}, "geometry": {"type": "Point", "coordinates": [46.109456735920254, 27.49773761168353]}}, {"type": "Feature", "properties": {"norad_id": 57402, "name": "TIANMU-1 10", "group": "weather", "lat": -19.35296944942607, "lon": -131.78643767558208, "alt_km": 491.14543047080224, "timestamp": "2025-12-27T02:10:15.831587+00:00", "meta": {"OBJECT_NAME": "TIANMU-1 10", "OBJECT_ID": "2023-101D", "EPOCH": "2025-12-26T20:35:14.781408", "MEAN_MOTION": 15.28283283, "ECCENTRICITY": 0.000781, "INCLINATION": 97.2883, "RA_OF_ASC_NODE": 50.5624, "ARG_OF_PERICENTER": 41.8736, "MEAN_ANOMALY": 318.31, "EPHEMERIS_TYPE": 0, "CLASSIFICATION_TYPE": "U", "NORAD_CAT_ID": 57402, "ELEMENT_SET_NO": 999, "REV_AT_EPOCH": 13530, "BSTAR": 0.00028556, "MEAN_MOTION_DOT": 7.802e-05, "MEAN_MOTION_DDOT": 0}, "tle": {"line1": "1 57402U 23101D   25360.85780997  .00007802  00000+0  28556-3 0  9999", "line2": "2 57402  97.2883  50.5624 0007810  41.8736 318.3100 15.28283283135304"}}, "geometry": {"type": "Point", "coordinates": [-131.78643767558208, -19.35296944942607]}}, {"type": "Feature", "properties": {"norad_id": 57490, "name": "FENGYUN 3F", "group": "weather", "lat": -80.24003524584651, "lon": 132.1309934245964, "alt_km": 833.603717995079, "timestamp": "2025-12-27T02:10:15.831598+00:00", "meta": {"OBJECT_NAME": "FENGYUN 3F", "OBJECT_ID": "2023-111A", "EPOCH": "2025-12-26T19:48:31.750272", "MEAN_MOTION": 14.1989724, "ECCENTRICITY": 8.68e-05, "INCLINATION": 98.7065, "RA_OF_ASC_NODE": 68.8903, "ARG_OF_PERICENTER": 117.8725, "MEAN_ANOMALY": 242.254, "EPHEMERIS_TYPE": 0, "CLASSIFICATION_TYPE": "U", "NORAD_CAT_ID": 57490, "ELEMENT_SET_NO": 999, "REV_AT_EPOCH": 12440, "BSTAR": 5.5478e-05, "MEAN_MOTION_DOT": 7.4e-07, "MEAN_MOTION_DDOT": 0}, "tle": {"line1": "1 57490U 23111A   25360.82536748  .00000074  00000+0  55478-4 0  9995", "line2": "2 57490  98.7065  68.8903 0000868 117.8725 242.2540 14.19897240124404"}}, "geometry": {"type": "Point", "coordinates": [132.1309934245964, -80.24003524584651]}}, {"type": "Feature", "properties": {"norad_id": 58584, "name": "ARKTIKA-M 2", "group": "weather", "lat": 60.051461662084485, "lon": -67.9115271561599, "alt_km": 34967.02319898229, "timestamp": "2025-12-27T02:10:15.831613+00:00", "meta": {"OBJECT_NAME": "ARKTIKA-M 2", "OBJECT_ID": "2023-198A", "EPOCH": "2025-12-25T18:56:09.299328", "MEAN_MOTION": 2.00602256, "ECCENTRICITY": 0.686608, "INCLINATION": 63.2255, "RA_OF_ASC_NODE": 173.4714, "ARG_OF_PERICENTER": 268.0516, "MEAN_ANOMALY": 18.8422, "EPHEMERIS_TYPE": 0, "CLASSIFICATION_TYPE": "U", "NORAD_CAT_ID": 58584, "ELEMENT_SET_NO": 999, "REV_AT_EPOCH": 1484, "BSTAR": 0, "MEAN_MOTION_DOT": 2.31e-06, "MEAN_MOTION_DDOT": 0}, "tle": {"line1": "1 58584U 23198A   25359.78899652  .00000231  00000+0  00000+0 0  9995", "line2": "2 58584  63.2255 173.4714 6866080 268.0516  18.8422  2.00602256 14849"}}, "geometry": {"type": "Point", "coordinates": [-67.9115271561599, 60.051461662084485]}}, {"type": "Feature", "properties": {"norad_id": 58645, "name": "TIANMU-1 11", "group": "weather", "lat": -18.212891226718092, "lon": -161.9757691606817, "alt_km": 493.28022117966066, "timestamp": "2025-12-27T02:10:15.831625+00:00", "meta": {"OBJECT_NAME": "TIANMU-1 11", "OBJECT_ID": "2023-205A", "EPOCH": "2025-12-26T20:34:42.804768", "MEAN_MOTION": 15.24770616, "ECCENTRICITY": 0.0007594, "INCLINATION": 97.3601, "RA_OF_ASC_NODE": 20.2328, "ARG_OF_PERICENTER": 249.752, "MEAN_ANOMALY": 110.2902, "EPHEMERIS_TYPE": 0, "CLASSIFICATION_TYPE": "U", "NORAD_CAT_ID": 58645, "ELEMENT_SET_NO": 999, "REV_AT_EPOCH": 11124, "BSTAR": 0.00027787, "MEAN_MOTION_DOT": 6.821e-05, "MEAN_MOTION_DDOT": 0}, "tle": {"line1": "1 58645U 23205A   25360.85743987  .00006821  00000+0  27787-3 0  9997", "line2": "2 58645  97.3601  20.2328 0007594 249.7520 110.2902 15.24770616111240"}}, "geometry": {"type": "Point", "coordinates": [-161.9757691606817, -18.212891226718092]}}, {"type": "Feature", "properties": {"norad_id": 58646, "name": "TIANMU-1 12", "group": "weather", "lat": 44.05444338572501, "lon": 13.079508153665062, "alt_km": 492.34496028811736, "timestamp": "2025-12-27T02:10:15.831636+00:00", "meta": {"OBJECT_NAME": "TIANMU-1 12", "OBJECT_ID": "2023-205B", "EPOCH": "2025-12-26T19:40:32.581920", "MEAN_MOTION": 15.24656886, "ECCENTRICITY": 0.0006104, "INCLINATION": 97.3588, "RA_OF_ASC_NODE": 19.9967, "ARG_OF_PERICENTER": 227.7655, "MEAN_ANOMALY": 132.3065, "EPHEMERIS_TYPE": 0, "CLASSIFICATION_TYPE": "U", "NORAD_CAT_ID": 58646, "ELEMENT_SET_NO": 999, "REV_AT_EPOCH": 11122, "BSTAR": 0.00028641, "MEAN_MOTION_DOT": 7.007e-05, "MEAN_MOTION_DDOT": 0}, "tle": {"line1": "1 58646U 23205B   25360.81982155  .00007007  00000+0  28641-3 0  9993", "line2": "2 58646  97.3588  19.9967 0006104 227.7655 132.3065 15.24656886111225"}}, "geometry": {"type": "Point", "coordinates": [13.079508153665062, 44.05444338572501]}}, {"type": "Feature", "properties": {"norad_id": 58647, "name": "TIANMU-1 13", "group": "weather", "lat": -42.5029078533238, "lon": -166.33484779691733, "alt_km": 493.89207828978033, "timestamp": "2025-12-27T02:10:15.831647+00:00", "meta": {"OBJECT_NAME": "TIANMU-1 13", "OBJECT_ID": "2023-205C", "EPOCH": "2025-12-26T20:28:16.663296", "MEAN_MOTION": 15.2470155, "ECCENTRICITY": 0.0006827, "INCLINATION": 97.3616, "RA_OF_ASC_NODE": 20.2362, "ARG_OF_PERICENTER": 206.1234, "MEAN_ANOMALY": 153.966, "EPHEMERIS_TYPE": 0, "CLASSIFICATION_TYPE": "U", "NORAD_CAT_ID": 58647, "ELEMENT_SET_NO": 999, "REV_AT_EPOCH": 11122, "BSTAR": 0.00028324, "MEAN_MOTION_DOT": 6.939e-05, "MEAN_MOTION_DDOT": 0}, "tle": {"line1": "1 58647U 23205C   25360.85297064  .00006939  00000+0  28324-3 0  9997", "line2": "2 58647  97.3616  20.2362 0006827 206.1234 153.9660 15.24701550111227"}}, "geometry": {"type": "Point", "coordinates": [-166.33484779691733, -42.5029078533238]}}, {"type": "Feature", "properties": {"norad_id": 58648, "name": "TIANMU-1 14", "group": "weather", "lat": -46.51026768730159, "lon": 27.63100546400669, "alt_km": 499.6004650408522, "timestamp": "2025-12-27T02:10:15.831681+00:00", "meta": {"OBJECT_NAME": "TIANMU-1 14", "OBJECT_ID": "2023-205D", "EPOCH": "2025-12-26T20:04:35.933664", "MEAN_MOTION": 15.24683547, "ECCENTRICITY": 0.0007487, "INCLINATION": 97.3549, "RA_OF_ASC_NODE": 19.5558, "ARG_OF_PERICENTER": 212.3607, "MEAN_ANOMALY": 147.7172, "EPHEMERIS_TYPE": 0, "CLASSIFICATION_TYPE": "U", "NORAD_CAT_ID": 58648, "ELEMENT_SET_NO": 999, "REV_AT_EPOCH": 11122, "BSTAR": 0.00027029, "MEAN_MOTION_DOT": 6.616e-05, "MEAN_MOTION_DDOT": 0}, "tle": {"line1": "1 58648U 23205D   25360.83652701  .00006616  00000+0  27029-3 0  9992", "line2": "2 58648  97.3549  19.5558 0007487 212.3607 147.7172 15.24683547111221"}}, "geometry": {"type": "Point", "coordinates": [27.63100546400669, -46.51026768730159]}}, {"type": "Feature", "properties": {"norad_id": 58660, "name": "TIANMU-1 19", "group": "weather", "lat": 22.160402349220785, "lon": 109.050840314077, "alt_km": 484.59864934140114, "timestamp": "2025-12-27T02:10:15.831693+00:00", "meta": {"OBJECT_NAME": "TIANMU-1 19", "OBJECT_ID": "2023-208A", "EPOCH": "2025-12-26T19:47:13.611840", "MEAN_MOTION": 15.28109108, "ECCENTRICITY": 0.0004913, "INCLINATION": 97.4384, "RA_OF_ASC_NODE": 111.8356, "ARG_OF_PERICENTER": 194.0933, "MEAN_ANOMALY": 166.017, "EPHEMERIS_TYPE": 0, "CLASSIFICATION_TYPE": "U", "NORAD_CAT_ID": 58660, "ELEMENT_SET_NO": 999, "REV_AT_EPOCH": 11097, "BSTAR": 0.0003735, "MEAN_MOTION_DOT": 0.00010168, "MEAN_MOTION_DDOT": 0}, "tle": {"line1": "1 58660U 23208A   25360.82446310  .00010168  00000+0  37350-3 0  9990", "line2": "2 58660  97.4384 111.8356 0004913 194.0933 166.0170 15.28109108110977"}}, "geometry": {"type": "Point", "coordinates": [109.050840314077, 22.160402349220785]}}, {"type": "Feature", "properties": {"norad_id": 58661, "name": "TIANMU-1 20", "group": "weather", "lat": 21.64552934031429, "lon": -64.46755010017532, "alt_km": 474.69201040041935, "timestamp": "2025-12-27T02:10:15.831703+00:00", "meta": {"OBJECT_NAME": "TIANMU-1 20", "OBJECT_ID": "2023-208B", "EPOCH": "2025-12-26T20:46:14.471328", "MEAN_MOTION": 15.29300404, "ECCENTRICITY": 0.0006934, "INCLINATION": 97.4322, "RA_OF_ASC_NODE": 112.3381, "ARG_OF_PERICENTER": 208.1482, "MEAN_ANOMALY": 151.9384, "EPHEMERIS_TYPE": 0, "CLASSIFICATION_TYPE": "U", "NORAD_CAT_ID": 58661, "ELEMENT_SET_NO": 999, "REV_AT_EPOCH": 11105, "BSTAR": 0.00037935, "MEAN_MOTION_DOT": 0.00010717, "MEAN_MOTION_DDOT": 0}, "tle": {"line1": "1 58661U 23208B   25360.86544527  .00010717  00000+0  37935-3 0  9993", "line2": "2 58661  97.4322 112.3381 0006934 208.1482 151.9384 15.29300404111058"}}, "geometry": {"type": "Point", "coordinates": [-64.46755010017532, 21.64552934031429]}}]}